{
    "links": {
        "self": "http://www.neowsapp.com/rest/v1/neo/3508110?api_key=iIulBulltgU6a56xZRHN4H3l9WmuAYTsLGpBGhQ2"
    },
    "id": "3508110",
    "neo_reference_id": "3508110",
    "name": "(2010 CC19)",
    "designation": "2010 CC19",
    "nasa_jpl_url": "http://ssd.jpl.nasa.gov/sbdb.cgi?sstr=3508110",
    "absolute_magnitude_h": 22.3,
    "estimated_diameter": {
        "kilometers": {
            "estimated_diameter_min": 0.0921626549,
            "estimated_diameter_max": 0.2060819612
        },
        "meters": {
            "estimated_diameter_min": 92.1626548503,
            "estimated_diameter_max": 206.0819612321
        },
        "miles": {
            "estimated_diameter_min": 0.057267201,
            "estimated_diameter_max": 0.1280533543
        },
        "feet": {
            "estimated_diameter_min": 302.370924539,
            "estimated_diameter_max": 676.1219416887
        }
    },
    "is_potentially_hazardous_asteroid": false,
    "close_approach_data": [
        {
            "close_approach_date": "2010-02-17",
            "close_approach_date_full": "2010-Feb-17 09:28",
            "epoch_date_close_approach": 1266398880000,
            "relative_velocity": {
                "kilometers_per_second": "30.5333475583",
                "kilometers_per_hour": "109920.051209902",
                "miles_per_hour": "68300.0451531749"
            },
            "miss_distance": {
                "astronomical": "0.0765590641",
                "lunar": "29.7814759349",
                "kilometers": "11453072.918553467",
                "miles": "7116609.5100211646"
            },
            "orbiting_body": "Earth"
        }
    ],
    "orbital_data": {
        "orbit_id": "10",
        "orbit_determination_date": "2017-04-06 08:58:27",
        "first_observation_date": "2010-02-13",
        "last_observation_date": "2010-02-20",
        "data_arc_in_days": 7,
        "observations_used": 44,
        "orbit_uncertainty": "9",
        "minimum_orbit_intersection": ".0543604",
        "jupiter_tisserand_invariant": "5.155",
        "epoch_osculation": "2455243.5",
        "eccentricity": ".7510776524464398",
        "semi_major_axis": "1.099100632122349",
        "inclination": "46.11959470816301",
        "ascending_node_longitude": "144.1777010963833",
        "orbital_period": "420.8764380856467",
        "perihelion_distance": ".2735907095454971",
        "perihelion_argument": "138.4070977611612",
        "aphelion_distance": "1.924610554699201",
        "perihelion_time": "2455295.207467000335",
        "mean_anomaly": "315.7716079218182",
        "mean_motion": ".8553579326926859",
        "equinox": "J2000",
        "orbit_class": {
            "orbit_class_type": "APO",
            "orbit_class_description": "Near-Earth asteroid orbits which cross the Earth’s orbit similar to that of 1862 Apollo",
            "orbit_class_range": "a (semi-major axis) > 1.0 AU; q (perihelion) < 1.017 AU"
        }
    },
    "is_sentry_object": false
}